[{"OBJECT_NAME":"STARLINK-1695","OBJECT_ID":"2020-062E","EPOCH":"2026-03-10T00:00:02.999808","MEAN_MOTION":15.54321965,"ECCENTRICITY":0.00056929,"INCLINATION":53.0499,"RA_OF_ASC_NODE":335.097,"ARG_OF_PERICENTER":127.3586,"MEAN_ANOMALY":314.4015,"EPHEMERIS_TYPE":0,"CLASSIFICATION_TYPE":"U","NORAD_CAT_ID":46329,"ELEMENT_SET_NO":999,"REV_AT_EPOCH":591,"BSTAR":0.0015936543,"MEAN_MOTION_DOT":0.00107125,"MEAN_MOTION_DDOT":0},{"OBJECT_NAME":"OBJECT E","OBJECT_ID":"2022-019E","EPOCH":"2026-03-09T23:02:18.608640","MEAN_MOTION":15.54311687,"ECCENTRICITY":0.0007625,"INCLINATION":97.3769,"RA_OF_ASC_NODE":162.7783,"ARG_OF_PERICENTER":112.7188,"MEAN_ANOMALY":247.4872,"EPHEMERIS_TYPE":0,"CLASSIFICATION_TYPE":"U","NORAD_CAT_ID":51828,"ELEMENT_SET_NO":999,"REV_AT_EPOCH":22455,"BSTAR":0.00045599749,"MEAN_MOTION_DOT":0.00029815,"MEAN_MOTION_DDOT":0}]
